TEVEL2-9                
1 63237U 25052AD  26068.70229538  .00018694  00000+0  67240-3 0  9992
2 63237  97.4057 324.3929 0007990 124.2475 235.9522 15.28633834 54816
STARLINK-34119          
1 63895U 25095F   26068.28896011  .00033204  00000+0  12114-2 0  9991
2 63895  42.9992 178.7369 0000511 222.3081 137.7731 15.27561474 47725
