[{"OBJECT_NAME":"TEVEL2-9","OBJECT_ID":"2025-052AD","EPOCH":"2026-03-09T16:51:18.321696","MEAN_MOTION":15.28633834,"ECCENTRICITY":0.000799,"INCLINATION":97.4057,"RA_OF_ASC_NODE":324.3929,"ARG_OF_PERICENTER":124.2475,"MEAN_ANOMALY":235.9522,"EPHEMERIS_TYPE":0,"CLASSIFICATION_TYPE":"U","NORAD_CAT_ID":63237,"ELEMENT_SET_NO":999,"REV_AT_EPOCH":5481,"BSTAR":0.00067240159,"MEAN_MOTION_DOT":0.00018694,"MEAN_MOTION_DDOT":0},{"OBJECT_NAME":"STARLINK-34119","OBJECT_ID":"2025-095F","EPOCH":"2026-03-09T06:56:06.153504","MEAN_MOTION":15.27561474,"ECCENTRICITY":5.112e-5,"INCLINATION":42.9992,"RA_OF_ASC_NODE":178.7369,"ARG_OF_PERICENTER":222.3081,"MEAN_ANOMALY":137.7731,"EPHEMERIS_TYPE":0,"CLASSIFICATION_TYPE":"U","NORAD_CAT_ID":63895,"ELEMENT_SET_NO":999,"REV_AT_EPOCH":4772,"BSTAR":0.0012113934,"MEAN_MOTION_DOT":0.00033204,"MEAN_MOTION_DDOT":0}]
